HULIANWANG DIGUI-33     
1 64286U 25121D   26062.60448374  .00000059  00000+0  10261-3 0  9995
2 64286  86.4964  49.2141 0002088  78.7933 281.3435 13.24425313 36183
HULIANWANG DIGUI-34     
1 64287U 25121E   26062.59697880  .00000058  00000+0  10055-3 0  9992
2 64287  86.4941  49.1489 0002244  75.1799 284.9583 13.24424192 36185
HULIANWANG DIGUI-35     
1 64956U 25159A   26062.63898042  .00000068  00000+0  12460-3 0  9997
2 64956  86.4987 318.1078 0001305  70.9428 289.1848 13.24416944 29156
HULIANWANG DIGUI-36     
1 64957U 25159B   26062.63123632  .00000054  00000+0  91185-4 0  9991
2 64957  86.5007 318.1479 0001388  70.1681 289.9603 13.24419551 29154
HULIANWANG DIGUI-37     
1 64958U 25159C   26062.62369378  .00000051  00000+0  84633-4 0  9997
2 64958  86.4948 318.0134 0001462  68.2322 291.8967 13.24419194 29156
HULIANWANG DIGUI-38     
1 64959U 25159D   26062.61615885  .00000043  00000+0  66781-4 0  9999
2 64959  86.5007 318.1408 0001441  70.7404 289.3886 13.24419367 29159
HULIANWANG DIGUI-39     
1 64960U 25159E   26062.60859175  .00000051  00000+0  84559-4 0  9994
2 64960  86.4984 318.0835 0001449  71.7476 288.3815 13.24419548 29157
HULIANWANG DIGUI-40     
1 65043U 25162A   26062.61444153 -.00000071  00000+0  11498-3 0  9992
2 65043  49.9991 284.6200 0001011  68.3898 291.7082 13.29332059 29308
HULIANWANG DIGUI-41     
1 65044U 25162B   26062.60608962 -.00000064  00000+0  12945-3 0  9992
2 65044  50.0002 284.5938 0001054  68.1174 291.9810 13.29332425 29313
HULIANWANG DIGUI-42     
1 65045U 25162C   26062.59770784 -.00000067  00000+0  12337-3 0  9991
2 65045  49.9966 284.4889 0000991  69.2556 290.8423 13.29331784 29314
HULIANWANG DIGUI-43     
1 65046U 25162D   26062.58933470 -.00000069  00000+0  11906-3 0  9997
2 65046  49.9983 284.4770 0000986  68.3980 291.6997 13.29332803 29316
HULIANWANG DIGUI-44     
1 65047U 25162E   26062.65587765 -.00000076  00000+0  10312-3 0  9996
2 65047  50.0011 284.2099 0000780 347.6391  12.4462 13.29340383 29335
HULIANWANG DIGUI-45     
1 65048U 25162F   26062.64784080 -.00000076  00000+0  10383-3 0  9993
2 65048  50.0041 284.2214 0001044  68.6697 291.4287 13.29332714 29323
HULIANWANG DIGUI-46     
1 65049U 25162G   26062.63948508 -.00000075  00000+0  10539-3 0  9992
2 65049  50.0058 284.2105 0001043  70.7573 289.3412 13.29332666 29329
HULIANWANG DIGUI-47     
1 65050U 25162H   26062.63112870 -.00000073  00000+0  10930-3 0  9992
2 65050  50.0023 284.1053 0001021  71.7963 288.3020 13.29332546 29325
HULIANWANG DIGUI-48     
1 65051U 25162J   26062.62279641 -.00000074  00000+0  10781-3 0  9997
2 65051  50.0033 284.0790 0001009  69.7953 290.3028 13.29332036 29321
