[{"OBJECT_NAME":"HULIANWANG DIGUI-33","OBJECT_ID":"2025-121D","EPOCH":"2026-03-03T14:30:27.395136","MEAN_MOTION":13.24425313,"ECCENTRICITY":0.00020883,"INCLINATION":86.4964,"RA_OF_ASC_NODE":49.2141,"ARG_OF_PERICENTER":78.7933,"MEAN_ANOMALY":281.3435,"EPHEMERIS_TYPE":0,"CLASSIFICATION_TYPE":"U","NORAD_CAT_ID":64286,"ELEMENT_SET_NO":999,"REV_AT_EPOCH":3618,"BSTAR":0.00010261246,"MEAN_MOTION_DOT":5.9e-7,"MEAN_MOTION_DDOT":0},{"OBJECT_NAME":"HULIANWANG DIGUI-34","OBJECT_ID":"2025-121E","EPOCH":"2026-03-03T14:19:38.968320","MEAN_MOTION":13.24424192,"ECCENTRICITY":0.00022442,"INCLINATION":86.4941,"RA_OF_ASC_NODE":49.1489,"ARG_OF_PERICENTER":75.1799,"MEAN_ANOMALY":284.9583,"EPHEMERIS_TYPE":0,"CLASSIFICATION_TYPE":"U","NORAD_CAT_ID":64287,"ELEMENT_SET_NO":999,"REV_AT_EPOCH":3618,"BSTAR":0.00010054566,"MEAN_MOTION_DOT":5.8e-7,"MEAN_MOTION_DDOT":0},{"OBJECT_NAME":"HULIANWANG DIGUI-35","OBJECT_ID":"2025-159A","EPOCH":"2026-03-03T15:20:07.908288","MEAN_MOTION":13.24416944,"ECCENTRICITY":0.00013059,"INCLINATION":86.4987,"RA_OF_ASC_NODE":318.1078,"ARG_OF_PERICENTER":70.9428,"MEAN_ANOMALY":289.1848,"EPHEMERIS_TYPE":0,"CLASSIFICATION_TYPE":"U","NORAD_CAT_ID":64956,"ELEMENT_SET_NO":999,"REV_AT_EPOCH":2915,"BSTAR":0.00012459874,"MEAN_MOTION_DOT":6.8e-7,"MEAN_MOTION_DDOT":0},{"OBJECT_NAME":"HULIANWANG DIGUI-36","OBJECT_ID":"2025-159B","EPOCH":"2026-03-03T15:08:58.818048","MEAN_MOTION":13.24419551,"ECCENTRICITY":0.00013886,"INCLINATION":86.5007,"RA_OF_ASC_NODE":318.1479,"ARG_OF_PERICENTER":70.1681,"MEAN_ANOMALY":289.9603,"EPHEMERIS_TYPE":0,"CLASSIFICATION_TYPE":"U","NORAD_CAT_ID":64957,"ELEMENT_SET_NO":999,"REV_AT_EPOCH":2915,"BSTAR":9.1184711e-5,"MEAN_MOTION_DOT":5.4e-7,"MEAN_MOTION_DDOT":0},{"OBJECT_NAME":"HULIANWANG DIGUI-37","OBJECT_ID":"2025-159C","EPOCH":"2026-03-03T14:58:07.142592","MEAN_MOTION":13.24419194,"ECCENTRICITY":0.00014624,"INCLINATION":86.4948,"RA_OF_ASC_NODE":318.0134,"ARG_OF_PERICENTER":68.2322,"MEAN_ANOMALY":291.8967,"EPHEMERIS_TYPE":0,"CLASSIFICATION_TYPE":"U","NORAD_CAT_ID":64958,"ELEMENT_SET_NO":999,"REV_AT_EPOCH":2915,"BSTAR":8.4633486e-5,"MEAN_MOTION_DOT":5.1e-7,"MEAN_MOTION_DDOT":0},{"OBJECT_NAME":"HULIANWANG DIGUI-38","OBJECT_ID":"2025-159D","EPOCH":"2026-03-03T14:47:16.124640","MEAN_MOTION":13.24419367,"ECCENTRICITY":0.00014416,"INCLINATION":86.5007,"RA_OF_ASC_NODE":318.1408,"ARG_OF_PERICENTER":70.7404,"MEAN_ANOMALY":289.3886,"EPHEMERIS_TYPE":0,"CLASSIFICATION_TYPE":"U","NORAD_CAT_ID":64959,"ELEMENT_SET_NO":999,"REV_AT_EPOCH":2915,"BSTAR":6.6780855e-5,"MEAN_MOTION_DOT":4.3e-7,"MEAN_MOTION_DDOT":0},{"OBJECT_NAME":"HULIANWANG DIGUI-39","OBJECT_ID":"2025-159E","EPOCH":"2026-03-03T14:36:22.327200","MEAN_MOTION":13.24419548,"ECCENTRICITY":0.00014493,"INCLINATION":86.4984,"RA_OF_ASC_NODE":318.0835,"ARG_OF_PERICENTER":71.7476,"MEAN_ANOMALY":288.3815,"EPHEMERIS_TYPE":0,"CLASSIFICATION_TYPE":"U","NORAD_CAT_ID":64960,"ELEMENT_SET_NO":999,"REV_AT_EPOCH":2915,"BSTAR":8.4558749e-5,"MEAN_MOTION_DOT":5.1e-7,"MEAN_MOTION_DDOT":0},{"OBJECT_NAME":"HULIANWANG DIGUI-40","OBJECT_ID":"2025-162A","EPOCH":"2026-03-03T14:44:47.748192","MEAN_MOTION":13.29332059,"ECCENTRICITY":0.0001011,"INCLINATION":49.9991,"RA_OF_ASC_NODE":284.62,"ARG_OF_PERICENTER":68.3898,"MEAN_ANOMALY":291.7082,"EPHEMERIS_TYPE":0,"CLASSIFICATION_TYPE":"U","NORAD_CAT_ID":65043,"ELEMENT_SET_NO":999,"REV_AT_EPOCH":2930,"BSTAR":0.00011498222,"MEAN_MOTION_DOT":-7.1e-7,"MEAN_MOTION_DDOT":0},{"OBJECT_NAME":"HULIANWANG DIGUI-41","OBJECT_ID":"2025-162B","EPOCH":"2026-03-03T14:32:46.143168","MEAN_MOTION":13.29332425,"ECCENTRICITY":0.00010542,"INCLINATION":50.0002,"RA_OF_ASC_NODE":284.5938,"ARG_OF_PERICENTER":68.1174,"MEAN_ANOMALY":291.981,"EPHEMERIS_TYPE":0,"CLASSIFICATION_TYPE":"U","NORAD_CAT_ID":65044,"ELEMENT_SET_NO":999,"REV_AT_EPOCH":2931,"BSTAR":0.0001294536,"MEAN_MOTION_DOT":-6.4e-7,"MEAN_MOTION_DDOT":0},{"OBJECT_NAME":"HULIANWANG DIGUI-42","OBJECT_ID":"2025-162C","EPOCH":"2026-03-03T14:20:41.957376","MEAN_MOTION":13.29331784,"ECCENTRICITY":9.918e-5,"INCLINATION":49.9966,"RA_OF_ASC_NODE":284.4889,"ARG_OF_PERICENTER":69.2556,"MEAN_ANOMALY":290.8423,"EPHEMERIS_TYPE":0,"CLASSIFICATION_TYPE":"U","NORAD_CAT_ID":65045,"ELEMENT_SET_NO":999,"REV_AT_EPOCH":2931,"BSTAR":0.00012336866,"MEAN_MOTION_DOT":-6.7e-7,"MEAN_MOTION_DDOT":0},{"OBJECT_NAME":"HULIANWANG DIGUI-43","OBJECT_ID":"2025-162D","EPOCH":"2026-03-03T14:08:38.518080","MEAN_MOTION":13.29332803,"ECCENTRICITY":9.864e-5,"INCLINATION":49.9983,"RA_OF_ASC_NODE":284.477,"ARG_OF_PERICENTER":68.398,"MEAN_ANOMALY":291.6997,"EPHEMERIS_TYPE":0,"CLASSIFICATION_TYPE":"U","NORAD_CAT_ID":65046,"ELEMENT_SET_NO":999,"REV_AT_EPOCH":2931,"BSTAR":0.00011905835,"MEAN_MOTION_DOT":-6.9e-7,"MEAN_MOTION_DDOT":0},{"OBJECT_NAME":"HULIANWANG DIGUI-44","OBJECT_ID":"2025-162E","EPOCH":"2026-03-03T15:44:27.828960","MEAN_MOTION":13.29340383,"ECCENTRICITY":7.806e-5,"INCLINATION":50.0011,"RA_OF_ASC_NODE":284.2099,"ARG_OF_PERICENTER":347.6391,"MEAN_ANOMALY":12.4462,"EPHEMERIS_TYPE":0,"CLASSIFICATION_TYPE":"U","NORAD_CAT_ID":65047,"ELEMENT_SET_NO":999,"REV_AT_EPOCH":2933,"BSTAR":0.00010311797,"MEAN_MOTION_DOT":-7.6e-7,"MEAN_MOTION_DDOT":0},{"OBJECT_NAME":"HULIANWANG DIGUI-45","OBJECT_ID":"2025-162F","EPOCH":"2026-03-03T15:32:53.445120","MEAN_MOTION":13.29332714,"ECCENTRICITY":0.00010447,"INCLINATION":50.0041,"RA_OF_ASC_NODE":284.2214,"ARG_OF_PERICENTER":68.6697,"MEAN_ANOMALY":291.4287,"EPHEMERIS_TYPE":0,"CLASSIFICATION_TYPE":"U","NORAD_CAT_ID":65048,"ELEMENT_SET_NO":999,"REV_AT_EPOCH":2932,"BSTAR":0.00010383259,"MEAN_MOTION_DOT":-7.6e-7,"MEAN_MOTION_DDOT":0},{"OBJECT_NAME":"HULIANWANG DIGUI-46","OBJECT_ID":"2025-162G","EPOCH":"2026-03-03T15:20:51.510912","MEAN_MOTION":13.29332666,"ECCENTRICITY":0.00010434,"INCLINATION":50.0058,"RA_OF_ASC_NODE":284.2105,"ARG_OF_PERICENTER":70.7573,"MEAN_ANOMALY":289.3412,"EPHEMERIS_TYPE":0,"CLASSIFICATION_TYPE":"U","NORAD_CAT_ID":65049,"ELEMENT_SET_NO":999,"REV_AT_EPOCH":2932,"BSTAR":0.00010539363,"MEAN_MOTION_DOT":-7.5e-7,"MEAN_MOTION_DDOT":0},{"OBJECT_NAME":"HULIANWANG DIGUI-47","OBJECT_ID":"2025-162H","EPOCH":"2026-03-03T15:08:49.519680","MEAN_MOTION":13.29332546,"ECCENTRICITY":0.00010219,"INCLINATION":50.0023,"RA_OF_ASC_NODE":284.1053,"ARG_OF_PERICENTER":71.7963,"MEAN_ANOMALY":288.302,"EPHEMERIS_TYPE":0,"CLASSIFICATION_TYPE":"U","NORAD_CAT_ID":65050,"ELEMENT_SET_NO":999,"REV_AT_EPOCH":2932,"BSTAR":0.0001093034,"MEAN_MOTION_DOT":-7.3e-7,"MEAN_MOTION_DDOT":0},{"OBJECT_NAME":"HULIANWANG DIGUI-48","OBJECT_ID":"2025-162J","EPOCH":"2026-03-03T14:56:49.609824","MEAN_MOTION":13.29332036,"ECCENTRICITY":0.00010099,"INCLINATION":50.0033,"RA_OF_ASC_NODE":284.079,"ARG_OF_PERICENTER":69.7953,"MEAN_ANOMALY":290.3028,"EPHEMERIS_TYPE":0,"CLASSIFICATION_TYPE":"U","NORAD_CAT_ID":65051,"ELEMENT_SET_NO":999,"REV_AT_EPOCH":2932,"BSTAR":0.00010780827,"MEAN_MOTION_DOT":-7.4e-7,"MEAN_MOTION_DDOT":0}]
